*******************************************************************************
Ephemeris / WWW_USER Mon Mar 24 08:46:17 2025 Pasadena, USA      / Horizons    
*******************************************************************************
Target body name: (2018 OG)                       {source: JPL#12}
Center body name: Earth (399)                     {source: DE441}
Center-site name: Mauna Kea
*******************************************************************************
Start time      : A.D. 2019-Jan-16 04:13:00.0000 UT      
Stop  time      : A.D. 2019-Jan-16 16:49:00.0000 UT      
Step-size       : 1 minutes
*******************************************************************************
Target pole/equ : undefined
Target radii    : undefined                                                    
Center geodetic : 204.5278, 19.8260847, 4.21024   {E-lon(deg),Lat(deg),Alt(km)}
Center cylindric: 204.5278, 6006.35451, 2151.0229 {E-lon(deg),Dxy(km),Dz(km)}
Center pole/equ : ITRF93                          {East-longitude positive}
Center radii    : 6378.137, 6378.137, 6356.752 km {Equator_a, b, pole_c}       
Target primary  : Sun
Vis. interferer : MOON (R_eq= 1737.400) km        {source: DE441}
Rel. light bend : Sun                             {source: DE441}
Rel. lght bnd GM: 1.3271E+11 km^3/s^2                                          
Small-body perts: Yes                             {source: SB441-N16}
Atmos refraction: NO (AIRLESS)
RA format       : HMS
Time format     : CAL 
Calendar mode   : Mixed Julian/Gregorian
RTS-only print  : NO       
EOP file        : eop.250321.p250617                                           
EOP coverage    : DATA-BASED 1962-JAN-20 TO 2025-MAR-21. PREDICTS-> 2025-JUN-16
Units conversion: 1 au= 149597870.700 km, c= 299792.458 km/s, 1 day= 86400.0 s 
Table cut-offs 1: Elevation (-90.0deg=NO ),Airmass (>38.000=NO), Daylight (YES)
Table cut-offs 2: Solar elongation (  0.0,180.0=NO ),Local Hour Angle( 0.0=NO )
Table cut-offs 3: RA/DEC angular rate (     0.0=NO )                           
*******************************************************************************
Initial IAU76/J2000 heliocentric ecliptic osculating elements (au, days, deg.):
  EPOCH=  2458389.5 ! 2018-Sep-28.00 (TDB)         Residual RMS= .17662        
   EC= .5817218672922059   QR= .9873203561553971   TP= 2458366.942240702       
   OM= 131.0345430575832   W=  220.7633135105564   IN= 9.123860581277821       
  Equivalent ICRF heliocentric cartesian coordinates (au, au/d):
   X= 9.625437195102586E-01  Y= 3.686106454146055E-01  Z=-5.877845729655690E-03
  VX=-3.555418036941177E-03 VY= 1.979451357965206E-02 VZ= 6.659913004156397E-03
Asteroid physical parameters (km, seconds, rotational period in hours):        
   GM= n.a.                RAD= n.a.               ROTPER= n.a.                
   H= 23.6                 G= .150                 B-V= n.a.                   
                           ALBEDO= n.a.            STYP= n.a.                  
*******************************************************************************
 Date__(UT)__HR:MN     R.A._________(ICRF)_________DEC
******************************************************
$$SOE
 2019-Jan-16 06:16  m  05 02 42.150099 +12 43 01.36547
 2019-Jan-16 06:17  m  05 02 42.146877 +12 43 01.86794
 2019-Jan-16 06:18  m  05 02 42.143653 +12 43 02.37036
 2019-Jan-16 06:19  m  05 02 42.140426 +12 43 02.87274
 2019-Jan-16 06:20  m  05 02 42.137196 +12 43 03.37508
 2019-Jan-16 06:21  m  05 02 42.133963 +12 43 03.87739
 2019-Jan-16 06:22  m  05 02 42.130727 +12 43 04.37965
 2019-Jan-16 06:23  m  05 02 42.127489 +12 43 04.88188
 2019-Jan-16 06:24  m  05 02 42.124247 +12 43 05.38406
 2019-Jan-16 06:25  m  05 02 42.121004 +12 43 05.88621
 2019-Jan-16 06:26  m  05 02 42.117757 +12 43 06.38832
 2019-Jan-16 06:27  m  05 02 42.114508 +12 43 06.89038
 2019-Jan-16 06:28  m  05 02 42.111256 +12 43 07.39241
 2019-Jan-16 06:29  m  05 02 42.108002 +12 43 07.89440
 2019-Jan-16 06:30  m  05 02 42.104746 +12 43 08.39635
 2019-Jan-16 06:31  m  05 02 42.101487 +12 43 08.89826
 2019-Jan-16 06:32  m  05 02 42.098226 +12 43 09.40013
 2019-Jan-16 06:33  m  05 02 42.094962 +12 43 09.90195
 2019-Jan-16 06:34  m  05 02 42.091696 +12 43 10.40374
 2019-Jan-16 06:35  m  05 02 42.088428 +12 43 10.90549
 2019-Jan-16 06:36  m  05 02 42.085158 +12 43 11.40720
 2019-Jan-16 06:37  m  05 02 42.081886 +12 43 11.90887
 2019-Jan-16 06:38  m  05 02 42.078612 +12 43 12.41050
 2019-Jan-16 06:39  m  05 02 42.075335 +12 43 12.91209
 2019-Jan-16 06:40  m  05 02 42.072057 +12 43 13.41364
 2019-Jan-16 06:41  m  05 02 42.068777 +12 43 13.91515
 2019-Jan-16 06:42  m  05 02 42.065495 +12 43 14.41662
 2019-Jan-16 06:43  m  05 02 42.062211 +12 43 14.91804
 2019-Jan-16 06:44  m  05 02 42.058925 +12 43 15.41943
 2019-Jan-16 06:45  m  05 02 42.055638 +12 43 15.92078
 2019-Jan-16 06:46  m  05 02 42.052349 +12 43 16.42209
 2019-Jan-16 06:47  m  05 02 42.049058 +12 43 16.92335
 2019-Jan-16 06:48  m  05 02 42.045766 +12 43 17.42458
 2019-Jan-16 06:49  m  05 02 42.042472 +12 43 17.92576
 2019-Jan-16 06:50  m  05 02 42.039177 +12 43 18.42691
 2019-Jan-16 06:51  m  05 02 42.035880 +12 43 18.92801
 2019-Jan-16 06:52  m  05 02 42.032582 +12 43 19.42908
 2019-Jan-16 06:53  m  05 02 42.029283 +12 43 19.93010
 2019-Jan-16 06:54  m  05 02 42.025982 +12 43 20.43108
 2019-Jan-16 06:55  m  05 02 42.022680 +12 43 20.93202
 2019-Jan-16 06:56  m  05 02 42.019377 +12 43 21.43292
 2019-Jan-16 06:57  m  05 02 42.016073 +12 43 21.93378
 2019-Jan-16 06:58  m  05 02 42.012768 +12 43 22.43460
 2019-Jan-16 06:59  m  05 02 42.009461 +12 43 22.93538
 2019-Jan-16 07:00  m  05 02 42.006154 +12 43 23.43612
 2019-Jan-16 07:01  m  05 02 42.002846 +12 43 23.93681
 2019-Jan-16 07:02  m  05 02 41.999537 +12 43 24.43747
 2019-Jan-16 07:03  m  05 02 41.996227 +12 43 24.93808
 2019-Jan-16 07:04  m  05 02 41.992916 +12 43 25.43865
 2019-Jan-16 07:05  m  05 02 41.989604 +12 43 25.93919
 2019-Jan-16 07:06  m  05 02 41.986292 +12 43 26.43968
 2019-Jan-16 07:07  m  05 02 41.982979 +12 43 26.94013
 2019-Jan-16 07:08  m  05 02 41.979665 +12 43 27.44054
 2019-Jan-16 07:09  m  05 02 41.976351 +12 43 27.94090
 2019-Jan-16 07:10  m  05 02 41.973037 +12 43 28.44123
 2019-Jan-16 07:11  m  05 02 41.969721 +12 43 28.94152
 2019-Jan-16 07:12  m  05 02 41.966406 +12 43 29.44176
 2019-Jan-16 07:13  m  05 02 41.963090 +12 43 29.94196
 2019-Jan-16 07:14  m  05 02 41.959774 +12 43 30.44212
 2019-Jan-16 07:15  m  05 02 41.956458 +12 43 30.94224
 2019-Jan-16 07:16  m  05 02 41.953141 +12 43 31.44232
 2019-Jan-16 07:17  m  05 02 41.949824 +12 43 31.94236
 2019-Jan-16 07:18  m  05 02 41.946507 +12 43 32.44236
 2019-Jan-16 07:19  m  05 02 41.943190 +12 43 32.94231
 2019-Jan-16 07:20  m  05 02 41.939873 +12 43 33.44223
 2019-Jan-16 07:21  m  05 02 41.936556 +12 43 33.94210
 2019-Jan-16 07:22  m  05 02 41.933240 +12 43 34.44193
 2019-Jan-16 07:23  m  05 02 41.929923 +12 43 34.94172
 2019-Jan-16 07:24  m  05 02 41.926606 +12 43 35.44147
 2019-Jan-16 07:25  m  05 02 41.923290 +12 43 35.94117
 2019-Jan-16 07:26  m  05 02 41.919974 +12 43 36.44084
 2019-Jan-16 07:27  m  05 02 41.916658 +12 43 36.94046
 2019-Jan-16 07:28  m  05 02 41.913343 +12 43 37.44004
 2019-Jan-16 07:29  m  05 02 41.910028 +12 43 37.93958
 2019-Jan-16 07:30  m  05 02 41.906714 +12 43 38.43908
 2019-Jan-16 07:31  m  05 02 41.903400 +12 43 38.93854
 2019-Jan-16 07:32  m  05 02 41.900087 +12 43 39.43796
 2019-Jan-16 07:33  m  05 02 41.896774 +12 43 39.93733
 2019-Jan-16 07:34  m  05 02 41.893462 +12 43 40.43666
 2019-Jan-16 07:35  m  05 02 41.890151 +12 43 40.93596
 2019-Jan-16 07:36  m  05 02 41.886840 +12 43 41.43521
 2019-Jan-16 07:37  m  05 02 41.883531 +12 43 41.93441
 2019-Jan-16 07:38  m  05 02 41.880222 +12 43 42.43358
 2019-Jan-16 07:39  m  05 02 41.876914 +12 43 42.93271
 2019-Jan-16 07:40  m  05 02 41.873607 +12 43 43.43179
 2019-Jan-16 07:41  m  05 02 41.870301 +12 43 43.93083
 2019-Jan-16 07:42  m  05 02 41.866997 +12 43 44.42983
 2019-Jan-16 07:43  m  05 02 41.863693 +12 43 44.92879
 2019-Jan-16 07:44  t  05 02 41.860391 +12 43 45.42771
 2019-Jan-16 07:45  m  05 02 41.857089 +12 43 45.92659
 2019-Jan-16 07:46  m  05 02 41.853789 +12 43 46.42542
 2019-Jan-16 07:47  m  05 02 41.850491 +12 43 46.92421
 2019-Jan-16 07:48  m  05 02 41.847193 +12 43 47.42296
 2019-Jan-16 07:49  m  05 02 41.843898 +12 43 47.92167
 2019-Jan-16 07:50  m  05 02 41.840603 +12 43 48.42034
 2019-Jan-16 07:51  m  05 02 41.837310 +12 43 48.91897
 2019-Jan-16 07:52  m  05 02 41.834019 +12 43 49.41755
 2019-Jan-16 07:53  m  05 02 41.830729 +12 43 49.91610
 2019-Jan-16 07:54  m  05 02 41.827441 +12 43 50.41460
 2019-Jan-16 07:55  m  05 02 41.824155 +12 43 50.91306
 2019-Jan-16 07:56  m  05 02 41.820871 +12 43 51.41148
 2019-Jan-16 07:57  m  05 02 41.817588 +12 43 51.90986
 2019-Jan-16 07:58  m  05 02 41.814307 +12 43 52.40819
 2019-Jan-16 07:59  m  05 02 41.811028 +12 43 52.90649
 2019-Jan-16 08:00  m  05 02 41.807751 +12 43 53.40474
 2019-Jan-16 08:01  m  05 02 41.804476 +12 43 53.90295
 2019-Jan-16 08:02  m  05 02 41.801204 +12 43 54.40112
 2019-Jan-16 08:03  m  05 02 41.797933 +12 43 54.89925
 2019-Jan-16 08:04  m  05 02 41.794664 +12 43 55.39734
 2019-Jan-16 08:05  m  05 02 41.791398 +12 43 55.89539
 2019-Jan-16 08:06  m  05 02 41.788134 +12 43 56.39339
 2019-Jan-16 08:07  m  05 02 41.784872 +12 43 56.89136
 2019-Jan-16 08:08  m  05 02 41.781613 +12 43 57.38928
 2019-Jan-16 08:09  m  05 02 41.778356 +12 43 57.88716
 2019-Jan-16 08:10  m  05 02 41.775101 +12 43 58.38500
 2019-Jan-16 08:11  m  05 02 41.771849 +12 43 58.88280
 2019-Jan-16 08:12  m  05 02 41.768600 +12 43 59.38055
 2019-Jan-16 08:13  m  05 02 41.765353 +12 43 59.87827
 2019-Jan-16 08:14  m  05 02 41.762109 +12 44 00.37594
 2019-Jan-16 08:15  m  05 02 41.758867 +12 44 00.87358
 2019-Jan-16 08:16  m  05 02 41.755628 +12 44 01.37117
 2019-Jan-16 08:17  m  05 02 41.752392 +12 44 01.86872
 2019-Jan-16 08:18  m  05 02 41.749159 +12 44 02.36623
